NORAD_CAT_ID,OBJECT_NAME,OBJECT_TYPE,EPOCH,MEAN_MOTION,ECCENTRICITY,INCLINATION,RA_OF_ASC_NODE,ARG_OF_PERICENTER,MEAN_ANOMALY,BSTAR,MEAN_MOTION_DOT,MEAN_MOTION_DDOT,TLE_LINE0,TLE_LINE1,TLE_LINE2,SEMIMAJOR_AXIS,PERIOD,APOGEE,PERIGEE,DECAYED
53914.0,STARLINK-5040,PAYLOAD,2024-03-24 22:42:24,15.0883847,0.0001685,53.2165,282.6773,99.8538,260.2644,3.6211e-06,-2.3e-06,0.0,0 STARLINK-5040,1 53914U 22119AE  24084.94611899 -.00000230  00000-0  36211-5 0  9996,2 53914  53.2165 282.6773 0001685  99.8538 260.2644 15.08838470 83923,6917.885,95.438,540.916,538.584,0.0
53914.0,STARLINK-5040,PAYLOAD,2024-03-25 13:00:53,15.08813306,0.0002186,53.2156,280.0009,100.427,259.6969,0.00057742,8.907e-05,0.0,0 STARLINK-5040,1 53914U 22119AE  24085.54229004  .00008907  00000-0  57742-3 0  9994,2 53914  53.2156 280.0009 0002186 100.4270 259.6969 15.08813306 83592,6917.962,95.439,541.339,538.315,0.0
53914.0,STARLINK-5040,PAYLOAD,2024-03-25 19:22:26,15.08820616,0.0001697,53.2157,278.8132,92.3673,267.7514,0.00022612,3.311e-05,0.0,0 STARLINK-5040,1 53914U 22119AE  24085.80725137  .00003311  00000-0  22612-3 0  9993,2 53914  53.2157 278.8132 0001697  92.3673 267.7514 15.08820616 84057,6917.94,95.439,540.979,538.631,0.0
53914.0,STARLINK-5040,PAYLOAD,2024-03-26 12:51:39,15.08870092,0.0001848,53.2165,275.5426,96.624,263.4962,0.00085285,0.00013322,0.0,0 STARLINK-5040,1 53914U 22119AE  24086.53587354  .00013322  00000-0  85285-3 0  9999,2 53914  53.2165 275.5426 0001848  96.6240 263.4962 15.08870092 83749,6917.788,95.436,540.932,538.375,0.0
53914.0,STARLINK-5040,PAYLOAD,2024-03-26 14:27:02,15.08873125,0.0001841,53.2153,275.245,93.0783,267.0419,0.00087535,0.00013683,0.0,0 STARLINK-5040,1 53914U 22119AE  24086.60211135  .00013683  00000-0  87535-3 0  9998,2 53914  53.2153 275.2450 0001841  93.0783 267.0419 15.08873125 84171,6917.779,95.435,540.918,538.371,0.0
53914.0,STARLINK-5040,PAYLOAD,2024-03-26 20:48:36,15.08838989,0.0001583,53.2153,274.0552,94.2646,265.8527,0.0001868,2.686e-05,0.0,0 STARLINK-5040,1 53914U 22119AE  24086.86708483  .00002686  00000-0  18680-3 0  9999,2 53914  53.2153 274.0552 0001583  94.2646 265.8527 15.08838989 83797,6917.883,95.438,540.844,538.653,0.0
53914.0,STARLINK-5040,PAYLOAD,2024-03-26 22:23:59,15.08839061,0.000159,53.215,273.7575,94.4935,265.6239,0.00019172,2.764e-05,0.0,0 STARLINK-5040,1 53914U 22119AE  24086.93332441  .00002764  00000-0  19172-3 0  9998,2 53914  53.2150 273.7575 0001590  94.4935 265.6239 15.08839061 84225,6917.883,95.438,540.848,538.648,0.0
53914.0,STARLINK-5040,PAYLOAD,2024-03-27 12:42:28,15.08822279,0.0001436,53.216,271.0813,94.2552,265.8604,8.2118e-05,1.019e-05,0.0,0 STARLINK-5040,1 53914U 22119AE  24087.52949437  .00001019  00000-0  82118-4 0  9996,2 53914  53.2160 271.0813 0001436  94.2552 265.8604 15.08822279 83897,6917.935,95.439,540.793,538.806,0.0
53914.0,STARLINK-5040,PAYLOAD,2024-03-27 14:17:51,15.08818855,0.0001447,53.216,270.7839,93.8464,266.2693,4.4758e-05,4.24e-06,0.0,0 STARLINK-5040,1 53914U 22119AE  24087.59573781  .00000424  00000-0  44758-4 0  9995,2 53914  53.2160 270.7839 0001447  93.8464 266.2693 15.08818855 84327,6917.945,95.439,540.811,538.809,0.0
53914.0,STARLINK-5040,PAYLOAD,2024-03-27 22:14:47,15.0883002,0.000136,53.216,269.2973,80.6379,279.4766,6.2675e-05,7.09e-06,0.0,0 STARLINK-5040,1 53914U 22119AE  24087.92693296  .00000709  00000-0  62675-4 0  9990,2 53914  53.2160 269.2973 0001360  80.6379 279.4766 15.08830020 84372,6917.911,95.438,540.717,538.835,0.0
53914.0,STARLINK-5040,PAYLOAD,2024-03-28 04:36:18,15.08840182,0.0001349,53.2159,268.1079,80.6598,279.4547,0.00011091,1.478e-05,0.0,0 STARLINK-5040,1 53914U 22119AE  24088.19188646  .00001478  00000-0  11091-3 0  9997,2 53914  53.2159 268.1079 0001349  80.6598 279.4547 15.08840182 83999,6917.88,95.438,540.678,538.812,0.0
53914.0,STARLINK-5040,PAYLOAD,2024-03-28 12:33:16,15.08823506,0.0001411,53.2159,266.621,89.7818,270.3336,-6.488e-05,-1.32e-05,0.0,0 STARLINK-5040,1 53914U 22119AE  24088.52310383 -.00001320  00000-0 -64880-4 0  9992,2 53914  53.2159 266.6210 0001411  89.7818 270.3336 15.08823506 84048,6917.931,95.439,540.772,538.82,0.0
53914.0,STARLINK-5040,PAYLOAD,2024-03-28 14:08:38,15.08832955,0.0001594,53.2159,266.3235,108.019,252.0976,-0.00014946,-2.665e-05,0.0,0 STARLINK-5040,1 53914U 22119AE  24088.58933962 -.00002665  00000-0 -14946-3 0  9992,2 53914  53.2159 266.3235 0001594 108.0190 252.0976 15.08832955 84474,6917.902,95.438,540.87,538.664,0.0
53914.0,STARLINK-5040,PAYLOAD,2024-03-28 20:30:11,15.08839116,0.0001355,53.216,265.1343,89.3396,270.7751,-7.6683e-05,-1.508e-05,0.0,0 STARLINK-5040,1 53914U 22119AE  24088.85429545 -.00001508  00000-0 -76683-4 0  9991,2 53914  53.2160 265.1343 0001355  89.3396 270.7751 15.08839116 84099,6917.883,95.438,540.685,538.811,0.0
53914.0,STARLINK-5040,PAYLOAD,2024-03-28 22:05:33,15.08850438,0.0001455,53.2159,264.8369,91.5807,268.5352,-0.00025379,-4.326e-05,0.0,0 STARLINK-5040,1 53914U 22119AE  24088.92052972 -.00004326  00000-0 -25379-3 0  9991,2 53914  53.2159 264.8369 0001455  91.5807 268.5352 15.08850438 84524,6917.848,95.437,540.72,538.707,0.0
53914.0,STARLINK-5040,PAYLOAD,2024-03-28 23:40:56,15.08841635,0.0001427,53.2152,264.5391,89.5918,270.5238,-0.00023688,-4.056e-05,0.0,0 STARLINK-5040,1 53914U 22119AE  24088.98676747 -.00004056  00000-0 -23688-3 0  9990,2 53914  53.2152 264.5391 0001427  89.5918 270.5238 15.08841635 84118,6917.875,95.437,540.728,538.753,0.0
53914.0,STARLINK-5040,PAYLOAD,2024-03-29 12:24:02,15.08828906,0.0001324,53.2153,262.1603,83.5855,276.5288,8.6519e-05,1.089e-05,0.0,0 STARLINK-5040,1 53914U 22119AE  24089.51669951  .00001089  00000-0  86519-4 0  9993,2 53914  53.2153 262.1603 0001324  83.5855 276.5288 15.08828906 84194,6917.914,95.438,540.695,538.863,0.0
53914.0,STARLINK-5040,PAYLOAD,2024-03-29 13:59:25,15.08832854,0.0001315,53.2153,261.8628,84.7519,275.3623,0.00026252,3.892e-05,0.0,0 STARLINK-5040,1 53914U 22119AE  24089.58293970  .00003892  00000-0  26252-3 0  9995,2 53914  53.2153 261.8628 0001315  84.7519 275.3623 15.08832854 84622,6917.902,95.438,540.677,538.858,0.0
53914.0,STARLINK-5040,PAYLOAD,2024-03-29 20:20:58,15.08844741,0.0001256,53.2153,260.6731,88.0956,272.018,0.00063124,9.774e-05,0.0,0 STARLINK-5040,1 53914U 22119AE  24089.84789783  .00009774  00000-0  63124-3 0  9990,2 53914  53.2153 260.6731 0001256  88.0956 272.0180 15.08844741 84248,6917.866,95.437,540.6,538.862,0.0
53914.0,STARLINK-5040,PAYLOAD,2024-03-29 21:56:21,15.08847812,0.0001241,53.2152,260.3757,89.1395,270.9739,0.00077862,0.00012128,0.0,0 STARLINK-5040,1 53914U 22119AE  24089.91413749  .00012128  00000-0  77862-3 0  9995,2 53914  53.2152 260.3757 0001241  89.1395 270.9739 15.08847812 84671,6917.857,95.437,540.58,538.863,0.0
53914.0,STARLINK-5040,PAYLOAD,2024-03-30 12:14:49,15.08837727,0.0001281,53.2151,257.6997,82.7377,277.3761,0.00019286,2.783e-05,0.0,0 STARLINK-5040,1 53914U 22119AE  24090.51029945  .00002783  00000-0  19286-3 0  9996,2 53914  53.2151 257.6997 0001281  82.7377 277.3761 15.08837727 84342,6917.887,95.438,540.639,538.866,0.0
53914.0,STARLINK-5040,PAYLOAD,2024-03-30 13:50:12,15.08841151,0.0001261,53.215,257.4021,81.9085,278.205,0.00027489,4.09e-05,0.0,0 STARLINK-5040,1 53914U 22119AE  24090.57653885  .00004090  00000-0  27489-3 0  9995,2 53914  53.2150 257.4021 0001261  81.9085 278.2050 15.08841151 84776,6917.877,95.437,540.614,538.87,0.0
53914.0,STARLINK-5040,PAYLOAD,2024-03-30 21:47:08,15.08850494,0.0001237,53.215,255.9153,79.0614,281.0517,0.00072006,0.00011194,0.0,0 STARLINK-5040,1 53914U 22119AE  24090.90773821  .00011194  00000-0  72006-3 0  9993,2 53914  53.2150 255.9153 0001237  79.0614 281.0517 15.08850494 84820,6917.848,95.437,540.569,538.858,0.0
53914.0,STARLINK-5040,PAYLOAD,2024-03-31 10:30:13,15.08856616,0.0001962,53.215,253.5362,80.5562,279.5652,0.001155,0.0001815,0.0,0 STARLINK-5040,1 53914U 22119AE  24091.43766071  .00018150  00000-0  11550-2 0  9996,2 53914  53.2150 253.5362 0001962  80.5562 279.5652 15.08856616 84903,6917.83,95.437,541.052,538.337,0.0
53914.0,STARLINK-5040,PAYLOAD,2024-03-31 16:51:46,15.08850797,0.0001458,53.215,252.3468,84.5238,275.5921,0.00066429,0.00010303,0.0,0 STARLINK-5040,1 53914U 22119AE  24091.70261866  .00010303  00000-0  66429-3 0  9996,2 53914  53.2150 252.3468 0001458  84.5238 275.5921 15.08850797 84528,6917.847,95.437,540.721,538.704,0.0
53914.0,STARLINK-5040,PAYLOAD,2024-04-01 03:59:27,15.0885423,0.0001292,53.2151,250.2655,82.6705,277.4434,0.00061035,9.443e-05,0.0,0 STARLINK-5040,1 53914U 22119AE  24092.16629533  .00009443  00000-0  61035-3 0  9997,2 53914  53.2151 250.2655 0001292  82.6705 277.4434 15.08854230 85019,6917.837,95.437,540.596,538.808,0.0
53914.0,STARLINK-5040,PAYLOAD,2024-04-01 19:53:20,15.08813436,0.000109,53.2152,247.2922,87.545,272.5667,-0.00029778,-5.02e-05,0.0,0 STARLINK-5040,1 53914U 22119AE  24092.82871012 -.00005020  00000-0 -29778-3 0  9998,2 53914  53.2152 247.2922 0001090  87.5450 272.5667 15.08813436 84690,6917.962,95.439,540.581,539.073,0.0
53914.0,STARLINK-5040,PAYLOAD,2024-04-02 10:11:49,15.08832908,0.0001053,53.216,244.6175,79.3285,280.7826,0.0012132,0.00019069,0.0,0 STARLINK-5040,1 53914U 22119AE  24093.42487846  .00019069  00000-0  12132-2 0  9994,2 53914  53.2160 244.6175 0001053  79.3285 280.7826 15.08832908 84787,6917.902,95.438,540.496,539.039,0.0
53914.0,STARLINK-5040,PAYLOAD,2024-04-02 13:22:35,15.08847127,0.0001048,53.2154,244.0237,73.1109,286.9998,0.0015348,0.00024227,0.0,0 STARLINK-5040,1 53914U 22119AE  24093.55735680  .00024227  00000-0  15348-2 0  9994,2 53914  53.2154 244.0237 0001048  73.1109 286.9998 15.08847127 85221,6917.859,95.437,540.449,538.999,0.0
53914.0,STARLINK-5040,PAYLOAD,2024-04-02 16:33:21,15.08878489,0.0001401,53.2163,243.4257,99.3532,260.7619,0.0026919,0.0004286,0.0,0 STARLINK-5040,1 53914U 22119AE  24093.68983183  .00042860  00000-0  26919-2 0  9990,2 53914  53.2163 243.4257 0001401  99.3532 260.7619 15.08878489 84829,6917.763,95.435,540.597,538.659,0.0
